{"type": "FeatureCollection", "features": [ {"type": "Feature", "properties": {"norad_id": 35020, "name": "COSMOS 2251 DEB", "group": "cosmos-2251-debris", "lat": -72.93749311017788, "lon": 79.73026293691163, "alt_km": 641.6125107784783, "timestamp": "2025-12-16T21:38:57.571105+00:00", "meta": {"OBJECT_NAME": "COSMOS 2251 DEB", "OBJECT_ID": "1993-036AGH", "EPOCH": "2025-12-13T23:30:11.436192", "MEAN_MOTION": 14.62807678, "ECCENTRICITY": 0.00911998, "INCLINATION": 74.0461, "RA_OF_ASC_NODE": 196.573, "ARG_OF_PERICENTER": 310.4261, "MEAN_ANOMALY": 48.8974, "EPHEMERIS_TYPE": 0, "CLASSIFICATION_TYPE": "U", "NORAD_CAT_ID": 35020, "ELEMENT_SET_NO": 999, "REV_AT_EPOCH": 88256, "BSTAR": 0.00019069928, "MEAN_MOTION_DOT": 9.99e-06, "MEAN_MOTION_DDOT": 0}, "tle": {"line1": "1 35020U 93036AGH 25347.97929903  .00000999  00000+0  19070-3 0  9996", "line2": "2 35020  74.0461 196.5730 0091199 310.4261  48.8974 14.62807678882569"}}, "geometry": {"type": "Point", "coordinates": [79.73026293691163, -72.93749311017788]}}, {"type": "Feature", "properties": {"norad_id": 35022, "name": "COSMOS 2251 DEB", "group": "cosmos-2251-debris", "lat": -66.73727499516521, "lon": -87.80649693554699, "alt_km": 720.3250119769664, "timestamp": "2025-12-16T21:38:57.571115+00:00", "meta": {"OBJECT_NAME": "COSMOS 2251 DEB", "OBJECT_ID": "1993-036AGK", "EPOCH": "2025-12-15T14:45:27.251136", "MEAN_MOTION": 14.60846809, "ECCENTRICITY": 0.00465822, "INCLINATION": 74.027, "RA_OF_ASC_NODE": 316.4327, "ARG_OF_PERICENTER": 155.4398, "MEAN_ANOMALY": 204.9001, "EPHEMERIS_TYPE": 0, "CLASSIFICATION_TYPE": "U", "NORAD_CAT_ID": 35022, "ELEMENT_SET_NO": 999, "REV_AT_EPOCH": 59185, "BSTAR": 0.00033959453, "MEAN_MOTION_DOT": 1.655e-05, "MEAN_MOTION_DDOT": 0}, "tle": {"line1": "1 35022U 93036AGK 25349.61489874  .00001655  00000+0  33959-3 0  9991", "line2": "2 35022  74.0270 316.4327 0046582 155.4398 204.9001 14.60846809591850"}}, "geometry": {"type": "Point", "coordinates": [-87.80649693554699, -66.73727499516521]}}, {"type": "Feature", "properties": {"norad_id": 35023, "name": "COSMOS 2251 DEB", "group": "cosmos-2251-debris", "lat": -68.47177738954503, "lon": 70.7114959092501, "alt_km": 567.423542436758, "timestamp": "2025-12-16T21:38:57.571125+00:00", "meta": {"OBJECT_NAME": "COSMOS 2251 DEB", "OBJECT_ID": "1993-036AGL", "EPOCH": "2025-12-16T08:27:00.817056", "MEAN_MOTION": 14.95215262, "ECCENTRICITY": 0.00337952, "INCLINATION": 74.0372, "RA_OF_ASC_NODE": 205.3008, "ARG_OF_PERICENTER": 282.5943, "MEAN_ANOMALY": 253.8375, "EPHEMERIS_TYPE": 0, "CLASSIFICATION_TYPE": "U", "NORAD_CAT_ID": 35023, "ELEMENT_SET_NO": 999, "REV_AT_EPOCH": 88333, "BSTAR": 0.00093234373, "MEAN_MOTION_DOT": 0.00010345, "MEAN_MOTION_DDOT": 0}, "tle": {"line1": "1 35023U 93036AGL 25350.35209279  .00010345  00000+0  93234-3 0  9992", "line2": "2 35023  74.0372 205.3008 0033795 282.5943 253.8375 14.95215262883331"}}, "geometry": {"type": "Point", "coordinates": [70.7114959092501, -68.47177738954503]}}, {"type": "Feature", "properties": {"norad_id": 35025, "name": "COSMOS 2251 DEB", "group": "cosmos-2251-debris", "lat": -5.284663422105981, "lon": 53.2469247618863, "alt_km": 602.5847073585919, "timestamp": "2025-12-16T21:38:57.571135+00:00", "meta": {"OBJECT_NAME": "COSMOS 2251 DEB", "OBJECT_ID": "1993-036AGN", "EPOCH": "2025-12-15T14:41:53.784384", "MEAN_MOTION": 14.72723882, "ECCENTRICITY": 0.00852985, "INCLINATION": 73.9389, "RA_OF_ASC_NODE": 57.2992, "ARG_OF_PERICENTER": 329.5046, "MEAN_ANOMALY": 30.1179, "EPHEMERIS_TYPE": 0, "CLASSIFICATION_TYPE": "U", "NORAD_CAT_ID": 35025, "ELEMENT_SET_NO": 999, "REV_AT_EPOCH": 88685, "BSTAR": 0.0002696379, "MEAN_MOTION_DOT": 1.786e-05, "MEAN_MOTION_DDOT": 0}, "tle": {"line1": "1 35025U 93036AGN 25349.61242806  .00001786  00000+0  26964-3 0  9999", "line2": "2 35025  73.9389  57.2992 0085298 329.5046  30.1179 14.72723882886851"}}, "geometry": {"type": "Point", "coordinates": [53.2469247618863, -5.284663422105981]}}, {"type": "Feature", "properties": {"norad_id": 35026, "name": "COSMOS 2251 DEB", "group": "cosmos-2251-debris", "lat": -58.46577605862418, "lon": -76.84120030331054, "alt_km": 754.3015829273872, "timestamp": "2025-12-16T21:38:57.571145+00:00", "meta": {"OBJECT_NAME": "COSMOS 2251 DEB", "OBJECT_ID": "1993-036AGP", "EPOCH": "2025-12-16T05:43:16.279104", "MEAN_MOTION": 14.53625612, "ECCENTRICITY": 0.00823729, "INCLINATION": 74.0468, "RA_OF_ASC_NODE": 312.1968, "ARG_OF_PERICENTER": 64.663, "MEAN_ANOMALY": 2.1155, "EPHEMERIS_TYPE": 0, "CLASSIFICATION_TYPE": "U", "NORAD_CAT_ID": 35026, "ELEMENT_SET_NO": 999, "REV_AT_EPOCH": 88194, "BSTAR": 7.3174206e-05, "MEAN_MOTION_DOT": 2.9e-06, "MEAN_MOTION_DDOT": 0}, "tle": {"line1": "1 35026U 93036AGP 25350.23838286  .00000290  00000+0  73174-4 0  9998", "line2": "2 35026  74.0468 312.1968 0082372  64.6630   2.1155 14.53625612881943"}}, "geometry": {"type": "Point", "coordinates": [-76.84120030331054, -58.46577605862418]}}, {"type": "Feature", "properties": {"norad_id": 35028, "name": "COSMOS 2251 DEB", "group": "cosmos-2251-debris", "lat": 72.99109062708267, "lon": 13.753974294195093, "alt_km": 667.5398213786375, "timestamp": "2025-12-16T21:38:57.571156+00:00", "meta": {"OBJECT_NAME": "COSMOS 2251 DEB", "OBJECT_ID": "1993-036AGR", "EPOCH": "2025-12-16T05:25:54.829920", "MEAN_MOTION": 14.56573716, "ECCENTRICITY": 0.00825907, "INCLINATION": 74.0385, "RA_OF_ASC_NODE": 264.3643, "ARG_OF_PERICENTER": 37.0811, "MEAN_ANOMALY": 116.1856, "EPHEMERIS_TYPE": 0, "CLASSIFICATION_TYPE": "U", "NORAD_CAT_ID": 35028, "ELEMENT_SET_NO": 999, "REV_AT_EPOCH": 88336, "BSTAR": 0.0001006742, "MEAN_MOTION_DOT": 4.39e-06, "MEAN_MOTION_DDOT": 0}, "tle": {"line1": "1 35028U 93036AGR 25350.22632905  .00000439  00000+0  10067-3 0  9995", "line2": "2 35028  74.0385 264.3643 0082590  37.0811 116.1856 14.56573716883360"}}, "geometry": {"type": "Point", "coordinates": [13.753974294195093, 72.99109062708267]}}, {"type": "Feature", "properties": {"norad_id": 35031, "name": "COSMOS 2251 DEB", "group": "cosmos-2251-debris", "lat": 73.75196304124808, "lon": -7.53685768019718, "alt_km": 761.0852967895662, "timestamp": "2025-12-16T21:38:57.571166+00:00", "meta": {"OBJECT_NAME": "COSMOS 2251 DEB", "OBJECT_ID": "1993-036AGU", "EPOCH": "2025-12-15T10:09:49.353696", "MEAN_MOTION": 14.38296815, "ECCENTRICITY": 0.00189775, "INCLINATION": 74.0382, "RA_OF_ASC_NODE": 254.3184, "ARG_OF_PERICENTER": 347.2171, "MEAN_ANOMALY": 12.8499, "EPHEMERIS_TYPE": 0, "CLASSIFICATION_TYPE": "U", "NORAD_CAT_ID": 35031, "ELEMENT_SET_NO": 999, "REV_AT_EPOCH": 65322, "BSTAR": 0.00017769599, "MEAN_MOTION_DOT": 5.15e-06, "MEAN_MOTION_DDOT": 0}, "tle": {"line1": "1 35031U 93036AGU 25349.42348789  .00000515  00000+0  17770-3 0  9996", "line2": "2 35031  74.0382 254.3184 0018977 347.2171  12.8499 14.38296815653220"}}, "geometry": {"type": "Point", "coordinates": [-7.53685768019718, 73.75196304124808]}}, {"type": "Feature", "properties": {"norad_id": 35032, "name": "COSMOS 2251 DEB", "group": "cosmos-2251-debris", "lat": -73.13408258356829, "lon": -107.85987682337357, "alt_km": 676.3837857164572, "timestamp": "2025-12-16T21:38:57.571176+00:00", "meta": {"OBJECT_NAME": "COSMOS 2251 DEB", "OBJECT_ID": "1993-036AGV", "EPOCH": "2025-12-16T07:20:55.474368", "MEAN_MOTION": 14.58755256, "ECCENTRICITY": 0.00681516, "INCLINATION": 73.8518, "RA_OF_ASC_NODE": 0.4086, "ARG_OF_PERICENTER": 211.1582, "MEAN_ANOMALY": 165.3981, "EPHEMERIS_TYPE": 0, "CLASSIFICATION_TYPE": "U", "NORAD_CAT_ID": 35032, "ELEMENT_SET_NO": 999, "REV_AT_EPOCH": 87726, "BSTAR": 0.00060668218, "MEAN_MOTION_DOT": 2.894e-05, "MEAN_MOTION_DDOT": 0}, "tle": {"line1": "1 35032U 93036AGV 25350.30619762  .00002894  00000+0  60668-3 0  9994", "line2": "2 35032  73.8518   0.4086 0068151 211.1582 165.3981 14.58755256877267"}}, "geometry": {"type": "Point", "coordinates": [-107.85987682337357, -73.13408258356829]}}, {"type": "Feature", "properties": {"norad_id": 35033, "name": "COSMOS 2251 DEB", "group": "cosmos-2251-debris", "lat": 8.593005069152754, "lon": -13.734926334575247, "alt_km": 726.3986788779639, "timestamp": "2025-12-16T21:38:57.571186+00:00", "meta": {"OBJECT_NAME": "COSMOS 2251 DEB", "OBJECT_ID": "1993-036AGW", "EPOCH": "2025-12-14T19:13:10.523136", "MEAN_MOTION": 14.50941129, "ECCENTRICITY": 0.00144614, "INCLINATION": 74.0257, "RA_OF_ASC_NODE": 172.6985, "ARG_OF_PERICENTER": 279.0961, "MEAN_ANOMALY": 80.8563, "EPHEMERIS_TYPE": 0, "CLASSIFICATION_TYPE": "U", "NORAD_CAT_ID": 35033, "ELEMENT_SET_NO": 999, "REV_AT_EPOCH": 65957, "BSTAR": 0.00063074773, "MEAN_MOTION_DOT": 2.468e-05, "MEAN_MOTION_DDOT": 0}, "tle": {"line1": "1 35033U 93036AGW 25348.80081624  .00002468  00000+0  63075-3 0  9999", "line2": "2 35033  74.0257 172.6985 0014461 279.0961  80.8563 14.50941129659577"}}, "geometry": {"type": "Point", "coordinates": [-13.734926334575247, 8.593005069152754]}}, {"type": "Feature", "properties": {"norad_id": 35038, "name": "COSMOS 2251 DEB", "group": "cosmos-2251-debris", "lat": 62.812884207627455, "lon": -178.5783092562122, "alt_km": 807.0115896421885, "timestamp": "2025-12-16T21:38:57.571196+00:00", "meta": {"OBJECT_NAME": "COSMOS 2251 DEB", "OBJECT_ID": "1993-036AHB", "EPOCH": "2025-12-16T02:43:57.942048", "MEAN_MOTION": 14.25166694, "ECCENTRICITY": 0.01140711, "INCLINATION": 74.1077, "RA_OF_ASC_NODE": 36.5236, "ARG_OF_PERICENTER": 19.3791, "MEAN_ANOMALY": 9.3469, "EPHEMERIS_TYPE": 0, "CLASSIFICATION_TYPE": "U", "NORAD_CAT_ID": 35038, "ELEMENT_SET_NO": 999, "REV_AT_EPOCH": 85617, "BSTAR": 0.00096319549, "MEAN_MOTION_DOT": 2.397e-05, "MEAN_MOTION_DDOT": 0}, "tle": {"line1": "1 35038U 93036AHB 25350.11386507  .00002397  00000+0  96320-3 0  9999", "line2": "2 35038  74.1077  36.5236 0114071  19.3791   9.3469 14.25166694856178"}}, "geometry": {"type": "Point", "coordinates": [-178.5783092562122, 62.812884207627455]}}]}